STARLINK-2046
1 17354C 21005F   21326.07638053  .00005516  00000-0  36950-3 0  3264
2 17354  53.0535 228.4077 0001925  67.6881  14.0397 15.06403007    10
